[{"OBJECT_NAME":"STARLINK-35533","OBJECT_ID":"2025-259H","EPOCH":"2026-03-08T23:24:31.730400","MEAN_MOTION":15.27541105,"ECCENTRICITY":0.00030097,"INCLINATION":43.0059,"RA_OF_ASC_NODE":278.2403,"ARG_OF_PERICENTER":262.8657,"MEAN_ANOMALY":97.1852,"EPHEMERIS_TYPE":0,"CLASSIFICATION_TYPE":"U","NORAD_CAT_ID":66429,"ELEMENT_SET_NO":999,"REV_AT_EPOCH":1938,"BSTAR":0.0015615382,"MEAN_MOTION_DOT":0.0004291,"MEAN_MOTION_DDOT":0},{"OBJECT_NAME":"CZ-6A DEB","OBJECT_ID":"2022-151CC","EPOCH":"2026-03-09T19:21:24.185952","MEAN_MOTION":15.21292269,"ECCENTRICITY":0.00294338,"INCLINATION":98.6347,"RA_OF_ASC_NODE":160.1892,"ARG_OF_PERICENTER":145.6687,"MEAN_ANOMALY":214.6455,"EPHEMERIS_TYPE":0,"CLASSIFICATION_TYPE":"U","NORAD_CAT_ID":54333,"ELEMENT_SET_NO":999,"REV_AT_EPOCH":17712,"BSTAR":0.0073643753,"MEAN_MOTION_DOT":0.00170206,"MEAN_MOTION_DDOT":0}]
